[{"OBJECT_NAME":"ONEWEB-0108","OBJECT_ID":"2021-025AL","EPOCH":"2026-03-09T19:35:39.732576","MEAN_MOTION":13.13469941,"ECCENTRICITY":0.00015083,"INCLINATION":87.9045,"RA_OF_ASC_NODE":339.9739,"ARG_OF_PERICENTER":75.3113,"MEAN_ANOMALY":284.8183,"EPHEMERIS_TYPE":0,"CLASSIFICATION_TYPE":"U","NORAD_CAT_ID":48076,"ELEMENT_SET_NO":999,"REV_AT_EPOCH":24060,"BSTAR":0.00093760627,"MEAN_MOTION_DOT":3.55e-6,"MEAN_MOTION_DDOT":0},{"OBJECT_NAME":"COSMOS 397 DEB","OBJECT_ID":"1971-015K","EPOCH":"2026-03-09T22:19:18.882624","MEAN_MOTION":13.64687983,"ECCENTRICITY":0.06428394,"INCLINATION":65.8167,"RA_OF_ASC_NODE":317.2661,"ARG_OF_PERICENTER":130.2225,"MEAN_ANOMALY":235.6932,"EPHEMERIS_TYPE":0,"CLASSIFICATION_TYPE":"U","NORAD_CAT_ID":5016,"ELEMENT_SET_NO":999,"REV_AT_EPOCH":63965,"BSTAR":0.0010600435,"MEAN_MOTION_DOT":3.54e-5,"MEAN_MOTION_DDOT":0}]
